[{"OBJECT_NAME":"STARLINK-5038","OBJECT_ID":"2023-064AA","EPOCH":"2026-03-09T14:14:00.460896","MEAN_MOTION":14.98345369,"ECCENTRICITY":0.0002868,"INCLINATION":70.0006,"RA_OF_ASC_NODE":124.7539,"ARG_OF_PERICENTER":262.8669,"MEAN_ANOMALY":97.2164,"EPHEMERIS_TYPE":0,"CLASSIFICATION_TYPE":"U","NORAD_CAT_ID":56472,"ELEMENT_SET_NO":999,"REV_AT_EPOCH":15572,"BSTAR":0.00014923,"MEAN_MOTION_DOT":1.689e-5,"MEAN_MOTION_DDOT":0},{"OBJECT_NAME":"CZ-6A DEB","OBJECT_ID":"2024-140AAU","EPOCH":"2026-03-09T16:48:50.985504","MEAN_MOTION":14.99127941,"ECCENTRICITY":0.00591225,"INCLINATION":89.196,"RA_OF_ASC_NODE":296.0099,"ARG_OF_PERICENTER":104.8686,"MEAN_ANOMALY":255.9106,"EPHEMERIS_TYPE":0,"CLASSIFICATION_TYPE":"U","NORAD_CAT_ID":61486,"ELEMENT_SET_NO":999,"REV_AT_EPOCH":8015,"BSTAR":0.0049724997,"MEAN_MOTION_DOT":0.00063139,"MEAN_MOTION_DDOT":0}]
